{
  "type": "FeatureCollection",
  "features": [
    {
      "type": "Feature",
      "properties": {
        "norad_id": 32275,
        "name": "COSMOS 2433 (720)",
        "group": "glo-ops",
        "lat": 10.695018022345627,
        "lon": -32.747262370599046,
        "alt_km": 19135.466510770562,
        "timestamp": "2025-12-07T22:37:43.340566+00:00",
        "meta_object_name": "COSMOS 2433 (720)",
        "meta_object_id": "2007-052A",
        "meta_epoch": "2025-12-06T23:44:11.537952",
        "meta_mean_motion": 2.13103921,
        "meta_eccentricity": 0.00054556,
        "meta_inclination": 65.6864,
        "meta_ra_of_asc_node": 322.3989,
        "meta_arg_of_pericenter": 253.5069,
        "meta_mean_anomaly": 106.429,
        "meta_ephemeris_type": 0,
        "meta_classification_type": "U",
        "meta_norad_cat_id": 32275,
        "meta_element_set_no": 999,
        "meta_rev_at_epoch": 14096,
        "meta_bstar": 0,
        "meta_mean_motion_dot": -5e-07,
        "meta_mean_motion_ddot": 0,
        "tle_line1": "1 32275U 07052A   25340.98902243 -.00000050  00000+0  00000+0 0  9998",
        "tle_line2": "2 32275  65.6864 322.3989 0005455 253.5069 106.4290  2.13103921140965"
      },
      "geometry": {
        "type": "Point",
        "coordinates": [
          -32.747262370599046,
          10.695018022345627
        ]
      }
    },
    {
      "type": "Feature",
      "properties": {
        "norad_id": 32276,
        "name": "COSMOS 2432 (719)",
        "group": "glo-ops",
        "lat": -39.11320717326598,
        "lon": -59.06866110613778,
        "alt_km": 19106.0266442989,
        "timestamp": "2025-12-07T22:37:43.340589+00:00",
        "meta_object_name": "COSMOS 2432 (719)",
        "meta_object_id": "2007-052B",
        "meta_epoch": "2025-12-07T02:45:37.162080",
        "meta_mean_motion": 2.13103072,
        "meta_eccentricity": 0.00112789,
        "meta_inclination": 65.7022,
        "meta_ra_of_asc_node": 322.5187,
        "meta_arg_of_pericenter": 312.1761,
        "meta_mean_anomaly": 88.8989,
        "meta_ephemeris_type": 0,
        "meta_classification_type": "U",
        "meta_norad_cat_id": 32276,
        "meta_element_set_no": 999,
        "meta_rev_at_epoch": 14099,
        "meta_bstar": 0,
        "meta_mean_motion_dot": -5e-07,
        "meta_mean_motion_ddot": 0,
        "tle_line1": "1 32276U 07052B   25341.11501345 -.00000050  00000+0  00000+0 0  9993",
        "tle_line2": "2 32276  65.7022 322.5187 0011278 312.1761  88.8989  2.13103072140994"
      },
      "geometry": {
        "type": "Point",
        "coordinates": [
          -59.06866110613778,
          -39.11320717326598
        ]
      }
    },
    {
      "type": "Feature",
      "properties": {
        "norad_id": 32393,
        "name": "COSMOS 2434 (721)",
        "group": "glo-ops",
        "lat": -63.24114846683013,
        "lon": 91.02452311493916,
        "alt_km": 19147.587301529387,
        "timestamp": "2025-12-07T22:37:43.340604+00:00",
        "meta_object_name": "COSMOS 2434 (721)",
        "meta_object_id": "2007-065A",
        "meta_epoch": "2025-12-05T10:54:52.087392",
        "meta_mean_motion": 2.1310119,
        "meta_eccentricity": 0.00044378,
        "meta_inclination": 64.3147,
        "meta_ra_of_asc_node": 198.4493,
        "meta_arg_of_pericenter": 70.9033,
        "meta_mean_anomaly": 82.6626,
        "meta_ephemeris_type": 0,
        "meta_classification_type": "U",
        "meta_norad_cat_id": 32393,
        "meta_element_set_no": 999,
        "meta_rev_at_epoch": 13964,
        "meta_bstar": 0,
        "meta_mean_motion_dot": 8.7e-07,
        "meta_mean_motion_ddot": 0,
        "tle_line1": "1 32393U 07065A   25339.45476953  .00000087  00000+0  00000+0 0  9996",
        "tle_line2": "2 32393  64.3147 198.4493 0004437  70.9033  82.6626  2.13101190139646"
      },
      "geometry": {
        "type": "Point",
        "coordinates": [
          91.02452311493916,
          -63.24114846683013
        ]
      }
    },
    {
      "type": "Feature",
      "properties": {
        "norad_id": 32395,
        "name": "COSMOS 2436 (723)",
        "group": "glo-ops",
        "lat": 31.515075240929633,
        "lon": -144.40284647279105,
        "alt_km": 19085.82588036441,
        "timestamp": "2025-12-07T22:37:43.340618+00:00",
        "meta_object_name": "COSMOS 2436 (723)",
        "meta_object_id": "2007-065C",
        "meta_epoch": "2025-12-07T03:33:41.330592",
        "meta_mean_motion": 2.13100006,
        "meta_eccentricity": 0.00177394,
        "meta_inclination": 64.3236,
        "meta_ra_of_asc_node": 198.4623,
        "meta_arg_of_pericenter": 9.1382,
        "meta_mean_anomaly": 136.8175,
        "meta_ephemeris_type": 0,
        "meta_classification_type": "U",
        "meta_norad_cat_id": 32395,
        "meta_element_set_no": 999,
        "meta_rev_at_epoch": 13963,
        "meta_bstar": 0,
        "meta_mean_motion_dot": 6.2e-07,
        "meta_mean_motion_ddot": 0,
        "tle_line1": "1 32395U 07065C   25341.14839503  .00000062  00000+0  00000+0 0  9994",
        "tle_line2": "2 32395  64.3236 198.4623 0017739   9.1382 136.8175  2.13100006139637"
      },
      "geometry": {
        "type": "Point",
        "coordinates": [
          -144.40284647279105,
          31.515075240929633
        ]
      }
    },
    {
      "type": "Feature",
      "properties": {
        "norad_id": 36111,
        "name": "COSMOS 2456 (730)",
        "group": "glo-ops",
        "lat": 51.237433764665404,
        "lon": 113.16275420971705,
        "alt_km": 19128.010970110627,
        "timestamp": "2025-12-07T22:37:43.340630+00:00",
        "meta_object_name": "COSMOS 2456 (730)",
        "meta_object_id": "2009-070A",
        "meta_epoch": "2025-12-06T21:12:24.583968",
        "meta_mean_motion": 2.13103425,
        "meta_eccentricity": 0.00030121,
        "meta_inclination": 64.8968,
        "meta_ra_of_asc_node": 77.5382,
        "meta_arg_of_pericenter": 297.7159,
        "meta_mean_anomaly": 29.056,
        "meta_ephemeris_type": 0,
        "meta_classification_type": "U",
        "meta_norad_cat_id": 36111,
        "meta_element_set_no": 999,
        "meta_rev_at_epoch": 12432,
        "meta_bstar": 0,
        "meta_mean_motion_dot": -1.7e-07,
        "meta_mean_motion_ddot": 0,
        "tle_line1": "1 36111U 09070A   25340.88361787 -.00000017  00000+0  00000+0 0  9997",
        "tle_line2": "2 36111  64.8968  77.5382 0003012 297.7159  29.0560  2.13103425124328"
      },
      "geometry": {
        "type": "Point",
        "coordinates": [
          113.16275420971705,
          51.237433764665404
        ]
      }
    },
    {
      "type": "Feature",
      "properties": {
        "norad_id": 36112,
        "name": "COSMOS 2457 (733)",
        "group": "glo-ops",
        "lat": -7.830071550872391,
        "lon": -98.95045967502617,
        "alt_km": 19121.07471981201,
        "timestamp": "2025-12-07T22:37:43.340642+00:00",
        "meta_object_name": "COSMOS 2457 (733)",
        "meta_object_id": "2009-070B",
        "meta_epoch": "2025-12-07T05:33:13.940640",
        "meta_mean_motion": 2.13100799,
        "meta_eccentricity": 0.00047672,
        "meta_inclination": 64.8824,
        "meta_ra_of_asc_node": 77.374,
        "meta_arg_of_pericenter": 157.9691,
        "meta_mean_anomaly": 204.8145,
        "meta_ephemeris_type": 0,
        "meta_classification_type": "U",
        "meta_norad_cat_id": 36112,
        "meta_element_set_no": 999,
        "meta_rev_at_epoch": 12434,
        "meta_bstar": 0,
        "meta_mean_motion_dot": -1.6e-07,
        "meta_mean_motion_ddot": 0,
        "tle_line1": "1 36112U 09070B   25341.23141135 -.00000016  00000+0  00000+0 0  9990",
        "tle_line2": "2 36112  64.8824  77.3740 0004767 157.9691 204.8145  2.13100799124347"
      },
      "geometry": {
        "type": "Point",
        "coordinates": [
          -98.95045967502617,
          -7.830071550872391
        ]
      }
    },
    {
      "type": "Feature",
      "properties": {
        "norad_id": 36402,
        "name": "COSMOS 2460 (732)",
        "group": "glo-ops",
        "lat": -7.295029671454562,
        "lon": 144.2642892776321,
        "alt_km": 19130.413065684148,
        "timestamp": "2025-12-07T22:37:43.340655+00:00",
        "meta_object_name": "COSMOS 2460 (732)",
        "meta_object_id": "2010-007C",
        "meta_epoch": "2025-12-05T09:49:39.891072",
        "meta_mean_motion": 2.13106027,
        "meta_eccentricity": 0.00027397,
        "meta_inclination": 65.5337,
        "meta_ra_of_asc_node": 321.021,
        "meta_arg_of_pericenter": 272.5603,
        "meta_mean_anomaly": 131.8824,
        "meta_ephemeris_type": 0,
        "meta_classification_type": "U",
        "meta_norad_cat_id": 36402,
        "meta_element_set_no": 999,
        "meta_rev_at_epoch": 12260,
        "meta_bstar": 0,
        "meta_mean_motion_dot": -4.8e-07,
        "meta_mean_motion_ddot": 0,
        "tle_line1": "1 36402U 10007C   25339.40948948 -.00000048  00000+0  00000+0 0  9992",
        "tle_line2": "2 36402  65.5337 321.0210 0002739 272.5603 131.8824  2.13106027122601"
      },
      "geometry": {
        "type": "Point",
        "coordinates": [
          144.2642892776321,
          -7.295029671454562
        ]
      }
    }
  ]
}